API VERSION: 1.2
API SOURCE: NASA/JPL Horizons API

*******************************************************************************
 Revised: June 02, 2025                 Mars                            499 / 4
 
 PHYSICAL DATA (updated 2025-Jun-02):
  Vol. mean radius (km) = 3389.92+-0.04   Density (g/cm^3)      =  3.933(5+-4)
  Mass x10^23 (kg)      =    6.4171       Flattening, f         =  1/169.779
  Volume (x10^10 km^3)  =   16.318        Equatorial radius (km)=  3396.19
  Sidereal rot. period  =   24.622962 hr  Sid. rot. rate, rad/s =  0.0000708822 
  Mean solar day (sol)  =   88775.24415 s Polar gravity m/s^2   =  3.758
  Core radius (km)      = ~1700           Equ. gravity  m/s^2   =  3.71
  Geometric Albedo      =    0.150                                              

  GM (km^3/s^2)         = 42828.375662    Mass ratio (Sun/Mars) = 3098703.59
  GM 1-sigma (km^3/s^2) = +- 0.00028      Mass of atmosphere, kg= ~ 2.5 x 10^16
  Mean temperature (K)  =  210            Atmos. pressure (bar) =    0.0056 
  Obliquity to orbit    =   25.19 deg     Max. angular diam.    =  17.9"
  Mean sidereal orb per =    1.88081578 y Visual mag. V(1,0)    =  -1.52
  Mean sidereal orb per =  686.98 d       Orbital speed,  km/s  =  24.13
  Hill's sphere rad. Rp =  319.8          Escape speed, km/s    =   5.027
                                 Perihelion  Aphelion    Mean
  Solar Constant (W/m^2)         717         493         589
  Maximum Planetary IR (W/m^2)   470         315         390
  Minimum Planetary IR (W/m^2)    30          30          30
*******************************************************************************


*******************************************************************************
Ephemeris / API_USER Thu Feb 19 13:06:44 2026 Pasadena, USA      / Horizons
*******************************************************************************
Target body name: Mars (499)                      {source: mar099}
Center body name: Earth (399)                     {source: DE441}
Center-site name: BODY CENTER
*******************************************************************************
Start time      : A.D. 2025-Dec-06 19:57:00.0000 TDB
Stop  time      : A.D. 2025-Dec-09 19:57:00.0000 TDB
Step-size       : 60 minutes
*******************************************************************************
Center geodetic : 0.0, 0.0, 0.0                   {E-lon(deg),Lat(deg),Alt(km)}
Center cylindric: 0.0, 0.0, 0.0                   {E-lon(deg),Dxy(km),Dz(km)}
Center radii    : 6378.137, 6378.137, 6356.752 km {Equator_a, b, pole_c}
Output units    : AU-D
Calendar mode   : Mixed Julian/Gregorian
Output type     : GEOMETRIC cartesian states
Output format   : 3 (position, velocity, LT, range, range-rate)
EOP file        : eop.260218.p260517
EOP coverage    : DATA-BASED 1962-JAN-20 TO 2026-FEB-18. PREDICTS-> 2026-MAY-16
Reference frame : Ecliptic of J2000.0
*******************************************************************************
JDTDB
   X     Y     Z
   VX    VY    VZ
   LT    RG    RR
*******************************************************************************
$$SOE
2461017.289583333 = A.D. 2025-Dec-07 18:57:00.0000 TDB 
 X =-2.534170112245845E-01 Y =-2.409593195771648E+00 Z =-3.024916115019432E-02
 VX= 3.145676896012956E-02 VY=-3.098112593338174E-03 VZ=-3.327350947524930E-04
 LT= 1.399449275628439E-02 RG= 2.423071307749178E+00 RR=-2.048740327728274E-04
2461017.331250000 = A.D. 2025-Dec-07 19:57:00.0000 TDB 
 X =-2.521062452980184E-01 Y =-2.409721907719594E+00 Z =-3.026302270728557E-02
 VX= 3.145999371870385E-02 VY=-3.080060356918666E-03 VZ=-3.326196262483787E-04
 LT= 1.399444332079786E-02 RG= 2.423062748260021E+00 RR=-2.059814172837604E-04
2461017.372916667 = A.D. 2025-Dec-07 20:57:00.0000 TDB 
 X =-2.507953452311733E-01 Y =-2.409849867422095E+00 Z =-3.027687945073162E-02
 VX= 3.146320769057811E-02 VY=-3.062004811451492E-03 VZ=-3.325040389288165E-04
 LT= 1.399439361884391E-02 RG= 2.423054142633462E+00 RR=-2.070886293393183E-04
2461017.414583333 = A.D. 2025-Dec-07 21:57:00.0000 TDB 
 X =-2.494843114738690E-01 Y =-2.409977074741267E+00 Z =-3.029073137547677E-02
 VX= 3.146641085781807E-02 VY=-3.043945957977395E-03 VZ=-3.323883278655439E-04
 LT= 1.399434365046344E-02 RG= 2.423045490876580E+00 RR=-2.081956728784032E-04
2461017.456250000 = A.D. 2025-Dec-07 22:57:00.0000 TDB 
 X =-2.481731444766402E-01 Y =-2.410103529539422E+00 Z =-3.030457847628878E-02
 VX= 3.146960320471602E-02 VY=-3.025883804274837E-03 VZ=-3.322724898329683E-04
 LT= 1.399429341569719E-02 RG= 2.423036792996430E+00 RR=-2.093025453884076E-04
2461017.497916667 = A.D. 2025-Dec-07 23:57:00.0000 TDB 
 X =-2.468618446905722E-01 Y =-2.410229231679277E+00 Z =-3.031842074786235E-02
 VX= 3.147278472091862E-02 VY=-3.007818361558102E-03 VZ=-3.321565246624943E-04
 LT= 1.399424291458696E-02 RG= 2.423028049000249E+00 RR=-2.104092414810100E-04
2461017.539583333 = A.D. 2025-Dec-08 00:57:00.0000 TDB 
 X =-2.455504125670433E-01 Y =-2.410354181024008E+00 Z =-3.033225818495480E-02
 VX= 3.147595540264649E-02 VY=-2.989749639382439E-03 VZ=-3.320404354722229E-04
 LT= 1.399419214717568E-02 RG= 2.423019258895472E+00 RR=-2.115157580622185E-04
2461017.581250000 = A.D. 2025-Dec-08 01:57:00.0000 TDB 
 X =-2.442388485574867E-01 Y =-2.410478377437050E+00 Z =-3.034609078249786E-02
 VX= 3.147911525044768E-02 VY=-2.971677640104291E-03 VZ=-3.319242270736250E-04
 LT= 1.399414111350619E-02 RG= 2.423010422689514E+00 RR=-2.126220996167534E-04
2461017.622916667 = A.D. 2025-Dec-08 02:57:00.0000 TDB 
 X =-2.429271531133424E-01 Y =-2.410601820781742E+00 Z =-3.035991853559212E-02
 VX= 3.148226426174121E-02 VY=-2.953602357015885E-03 VZ=-3.318079019776322E-04
 LT= 1.399408981361916E-02 RG= 2.423001540389417E+00 RR=-2.137282793564560E-04
2461017.664583333 = A.D. 2025-Dec-08 03:57:00.0000 TDB 
 X =-2.416153266863277E-01 Y =-2.410724510921069E+00 Z =-3.037374143935099E-02
 VX= 3.148540242580368E-02 VY=-2.935523781392490E-03 VZ=-3.316914583578010E-04
 LT= 1.399403824755171E-02 RG= 2.422992612001611E+00 RR=-2.148343117491640E-04
2461017.706250000 = A.D. 2025-Dec-08 04:57:00.0000 TDB 
 X =-2.403033697287507E-01 Y =-2.410846447717747E+00 Z =-3.038755948874477E-02
 VX= 3.148852972559509E-02 VY=-2.917441910007438E-03 VZ=-3.315748915784061E-04
 LT= 1.399398641533814E-02 RG= 2.422983637532031E+00 RR=-2.159402052298822E-04
2461017.747916667 = A.D. 2025-Dec-08 05:57:00.0000 TDB 
 X =-2.389912826936758E-01 Y =-2.410967631034523E+00 Z =-3.040137267854034E-02
 VX= 3.149164614299370E-02 VY=-2.899356747500720E-03 VZ=-3.314581970788020E-04
 LT= 1.399393431701165E-02 RG= 2.422974616986428E+00 RR=-2.170459603414976E-04
2461017.789583333 = A.D. 2025-Dec-08 06:57:00.0000 TDB 
 X =-2.376790660348467E-01 Y =-2.411088060734471E+00 Z =-3.041518100336335E-02
 VX= 3.149475166387216E-02 VY=-2.881268304185788E-03 VZ=-3.313413728193557E-04
 LT= 1.399388195260605E-02 RG= 2.422965550370656E+00 RR=-2.181515723838899E-04
2461017.831250000 = A.D. 2025-Dec-08 07:57:00.0000 TDB 
 X =-2.363667202064852E-01 Y =-2.411207736681145E+00 Z =-3.042898445781723E-02
 VX= 3.149784627961125E-02 VY=-2.863176592346109E-03 VZ=-3.312244197713961E-04
 LT= 1.399382932215652E-02 RG= 2.422956437690805E+00 RR=-2.192570352257309E-04
2461017.872916667 = A.D. 2025-Dec-08 08:57:00.0000 TDB 
 X =-2.350542456630311E-01 Y =-2.411326658738560E+00 Z =-3.044278303661429E-02
 VX= 3.150092998845221E-02 VY=-2.845081620524896E-03 VZ=-3.311073421671843E-04
 LT= 1.399377642569933E-02 RG= 2.422947278953155E+00 RR=-2.203623470965756E-04
2461017.914583333 = A.D. 2025-Dec-08 09:57:00.0000 TDB 
 X =-2.337416428589288E-01 Y =-2.411444826770912E+00 Z =-3.045657673466535E-02
 VX= 3.150400279043908E-02 VY=-2.826983388508319E-03 VZ=-3.309901444978260E-04
 LT= 1.399372326327015E-02 RG= 2.422938074163882E+00 RR=-2.214675151095956E-04
2461017.956250000 = A.D. 2025-Dec-08 10:57:00.0000 TDB 
 X =-2.324289122487152E-01 Y =-2.411562240642221E+00 Z =-3.047036554700682E-02
 VX= 3.150706468024814E-02 VY=-2.808881888997073E-03 VZ=-3.308728279441502E-04
 LT= 1.399366983490200E-02 RG= 2.422928823328705E+00 RR=-2.225725529538855E-04
2461017.997916667 = A.D. 2025-Dec-08 11:57:00.0000 TDB 
 X =-2.311160542873176E-01 Y =-2.411678900216177E+00 Z =-3.048414946863541E-02
 VX= 3.151011564434245E-02 VY=-2.790777115074946E-03 VZ=-3.307553894915128E-04
 LT= 1.399361614062457E-02 RG= 2.422919526452762E+00 RR=-2.236774732207893E-04
2461018.039583333 = A.D. 2025-Dec-08 12:57:00.0000 TDB 
 X =-2.298030694303548E-01 Y =-2.411794805356338E+00 Z =-3.049792849436960E-02
 VX= 3.151315566434151E-02 VY=-2.772669067541767E-03 VZ=-3.306378242400205E-04
 LT= 1.399356218046546E-02 RG= 2.422910183540834E+00 RR=-2.247822804210139E-04
2461018.081250000 = A.D. 2025-Dec-08 13:57:00.0000 TDB 
 X =-2.284899581341971E-01 Y =-2.411909955926441E+00 Z =-3.051170261884159E-02
 VX= 3.151618472311800E-02 VY=-2.754557753975242E-03 VZ=-3.305201284748965E-04
 LT= 1.399350795445203E-02 RG= 2.422900794597656E+00 RR=-2.258869724663679E-04
2461018.122916667 = A.D. 2025-Dec-08 14:57:00.0000 TDB 
 X =-2.271767208558474E-01 Y =-2.412024351790649E+00 Z =-3.052547183658033E-02
 VX= 3.151920280796099E-02 VY=-2.736443186906161E-03 VZ=-3.304023011543957E-04
 LT= 1.399345346261270E-02 RG= 2.422891359628153E+00 RR=-2.269915427572045E-04
2461018.164583333 = A.D. 2025-Dec-08 15:57:00.0000 TDB 
 X =-2.258633580527033E-01 Y =-2.412137992813673E+00 Z =-3.053923614214252E-02
 VX= 3.152220991278658E-02 VY=-2.718325378871139E-03 VZ=-3.302843446622903E-04
 LT= 1.399339870497760E-02 RG= 2.422881878637538E+00 RR=-2.280959852878064E-04
2461018.206250000 = A.D. 2025-Dec-08 16:57:00.0000 TDB 
 X =-2.245498701822915E-01 Y =-2.412250878860639E+00 Z =-3.055299553024057E-02
 VX= 3.152520603692352E-02 VY=-2.700204336555980E-03 VZ=-3.301662637226004E-04
 LT= 1.399334368157760E-02 RG= 2.422872351631154E+00 RR=-2.292003003571698E-04
